ION SCV-004             
1 50993U 22002K   26068.68892644  .00006538  00000+0  23198-3 0  9998
2 50993  97.2961 128.2294 0007216   1.6783 358.4480 15.29369331230088
STARLINK-35972          
1 66638U 25271X   26068.56295532  .00038974  00000+0  13219-2 0  9993
2 66638  53.1577 140.7783 0001345  72.4079 287.7068 15.30180455 17548
