[{"OBJECT_NAME":"ION SCV-004","OBJECT_ID":"2022-002K","EPOCH":"2026-03-09T16:32:03.244416","MEAN_MOTION":15.29369331,"ECCENTRICITY":0.00072157,"INCLINATION":97.2961,"RA_OF_ASC_NODE":128.2294,"ARG_OF_PERICENTER":1.6783,"MEAN_ANOMALY":358.448,"EPHEMERIS_TYPE":0,"CLASSIFICATION_TYPE":"U","NORAD_CAT_ID":50993,"ELEMENT_SET_NO":999,"REV_AT_EPOCH":23008,"BSTAR":0.00023198467,"MEAN_MOTION_DOT":6.538e-5,"MEAN_MOTION_DDOT":0},{"OBJECT_NAME":"STARLINK-35972","OBJECT_ID":"2025-271X","EPOCH":"2026-03-09T13:30:39.339648","MEAN_MOTION":15.30180455,"ECCENTRICITY":0.0001345,"INCLINATION":53.1577,"RA_OF_ASC_NODE":140.7783,"ARG_OF_PERICENTER":72.4079,"MEAN_ANOMALY":287.7068,"EPHEMERIS_TYPE":0,"CLASSIFICATION_TYPE":"U","NORAD_CAT_ID":66638,"ELEMENT_SET_NO":999,"REV_AT_EPOCH":1754,"BSTAR":0.0013219,"MEAN_MOTION_DOT":0.00038974,"MEAN_MOTION_DDOT":0}]
